#aV2015  1  3  0  0  0.00000000     288   BCE WGS84      ARL
## 1825 518400.00000000   300.00000000 57025 0.0000000000000
+   31     1  2  3  4  5  6  7  9 10 11 12 13 14 15 16 17 18
+         19 20 21 22 23 24 25 26 27 28 29 30 31 32  0  0  0
+          0  0  0  0  0  0  0  0  0  0  0  0  0  0  0  0  0
+          0  0  0  0  0  0  0  0  0  0  0  0  0  0  0  0  0
+          0  0  0  0  0  0  0  0  0  0  0  0  0  0  0  0  0
++         0  0  0  0  0  0  0  0  0  0  0  0  0  0  0  0  0
++         0  0  0  0  0  0  0  0  0  0  0  0  0  0  0  0  0
++         0  0  0  0  0  0  0  0  0  0  0  0  0  0  0  0  0
++         0  0  0  0  0  0  0  0  0  0  0  0  0  0  0  0  0
++         0  0  0  0  0  0  0  0  0  0  0  0  0  0  0  0  0
%c cc cc ccc ccc cccc cccc cccc cccc ccccc ccccc ccccc ccccc
%c cc cc ccc ccc cccc cccc cccc cccc ccccc ccccc ccccc ccccc
%f  0.0000000  0.000000000  0.00000000000  0.000000000000000
%f  0.0000000  0.000000000  0.00000000000  0.000000000000000
%i    0    0    0    0      0      0      0      0         0
%i    0    0    0    0      0      0      0      0         0
/* Test_Case_File                                           
/* CCCCCCCCCCCCCCCCCCCCCCCCCCCCCCCCCCCCCCCCCCCCCCCCCCCCCCCCC
/* CCCCCCCCCCCCCCCCCCCCCCCCCCCCCCCCCCCCCCCCCCCCCCCCCCCCCCCCC
/* CCCCCCCCCCCCCCCCCCCCCCCCCCCCCCCCCCCCCCCCCCCCCCCCCCCCCCCCC
*  2015  1  3 16 40  0.00000000
P  1  -8177.355818  19703.437864 -15768.173155    -10.540483
V  1 -17285.291497  10248.693879  22002.370545      0.003411
P  2  22120.141193 -13420.223771  -4414.114239    539.698471
V  2  -2399.366305   6806.325855 -30920.744631      0.022737
P  3    533.194486  16253.199890 -20988.562636    123.417369
V  3 -24820.639654  -9800.196899  -8263.256938      0.266027
P  4 -16393.422909  19455.078515  -7452.112032     -5.131662
V  4  -9352.625863   2842.414279  29486.024129     -0.005684
P  5  18946.930778  -5846.826027  17701.811955   -297.702180
V  5  20089.007298  10424.538124 -17826.975511      0.050022
P  6  21002.897245  -1664.055438 -16174.115580     41.991814
V  6 -15278.823091  13828.597429 -21293.662034      0.094360
P  7   4544.320223  14852.936986  21596.813841    428.238811
V  7 -22542.092342  15253.529063  -6119.331224      0.034106
P  9   7799.125639  24450.537945   6816.559815    -44.667338
V  9  -1679.826021   8937.069693 -30117.129962     -0.105729
P 10  25059.450887   9002.171947   2588.120549   -157.173015
V 10   2145.596189   4319.065929 -30810.099248     -0.017053
P 11  -9256.832339  23918.944647  -7120.299733   -548.253709
V 11  -8658.141267   4444.991925  28422.661867     -0.027285
P 12   2834.068670 -14723.129609 -22022.299153    258.553089
V 12  24998.189602  11865.330602  -4523.707094      0.029559
P 13  13252.510461 -11750.286364  19724.144432    -75.426811
V 13   1180.912934  25230.386980  13966.950484     -0.034106
P 14 -13995.802135 -10741.787811 -19670.064935    100.256562
V 14     15.260481 -25435.760512  13579.087626     -0.035243
P 15   3838.155264 -23958.723268  10341.849915   -224.177056
V 15   5558.726645  12679.254203  27417.967230     -0.022737
P 16 -19054.140559   3789.261777  18224.813949   -167.973172
V 16 -20166.930049 -11203.054179 -18339.477565      0.030695
P 17  13737.393077  12670.864822 -18679.545313   -147.860759
V 17    554.675038  24227.554014  16373.761653     -0.022737
P 18 -18545.576574 -16303.886532  10655.949361    369.702529
V 18  13024.316076   2029.014945  26660.130284      0.026148
P 19  -9130.964990  20292.868424  13977.085962   -495.162629
V 19  -2767.657919 -18145.886479  24682.287730     -0.015916
P 20   9939.308504  17501.548046 -17591.148542    274.604950
V 20 -21483.060075  -5297.856444 -17499.633902      0.042064
P 21 -11131.028958 -11756.678769  21743.891244   -404.022430
V 21  20737.733403 -15923.924914   1661.328905     -0.022737
P 22 -24932.837821  -9317.471331  -1180.171963    303.549765
V 22   -142.086262  -4248.279709  30727.696344      0.038654
P 23    578.717441  26104.153602  -3250.877126    -79.110672
V 23  -3971.395414  -3927.108697 -31425.359475     -0.027285
P 24  10922.712909 -20212.237622 -13233.192011    -41.159787
V 24  14845.454276  -8310.045885  25114.528963     -0.006821
P 25 -11216.092097 -17246.718700 -16961.812729      5.529000
V 25  20104.156913   7131.891000 -20493.895002     -0.022737
P 26  12235.276718 -13805.931819  18338.432770   -179.771283
V 26   2055.663717  24711.315750  16906.428564     -0.133014
P 27 -12865.009515  11050.933138  20408.757723     41.727384
V 27  -4103.905215 -25636.346537  11370.420029      0.027285
P 28  22490.519442  13979.533494   3311.070922    409.883003
V 28  -3850.744380     45.741657  31918.792548      0.026148
P 29  -4640.544167 -25813.819672   4344.838575    583.652589
V 29   2021.148638  -5608.815099 -31346.399652      0.023874
P 30  14895.467705   7716.794849  20601.865152    -86.251792
V 30 -21596.155633  14791.793981  10026.464852     -0.004547
P 31 -22209.337334   3854.598798 -14164.343992    326.189307
V 31  13902.451643 -11659.356801 -24390.029360     -0.007958
P 32 -12631.169621  10306.787235 -20871.508998   -255.898602
V 32 -23050.298493 -13446.048871   7852.080211      0.086402
*  2015  1  3 16 45  0.00000000
P  1  -8683.209026  20007.766025 -15093.161206    -10.540381
V  1 -16435.742828  10031.112969  22991.295704      0.003411
P  2  22036.158184 -13204.228847  -5337.048779    539.699153
V  2  -3193.270678   7597.463457 -30597.989739      0.022737
P  3   -217.991521  15963.967866 -21216.272285    123.425350
V  3 -25250.067068  -9476.475105  -6914.989837      0.266027
P  4 -16660.319575  19532.184386  -6560.636564     -5.131832
V  4  -8442.110478   2290.418834  29936.234715     -0.005684
P  5  19542.610792  -5543.062878  17150.269721   -297.700679
V  5  19614.006410   9827.356917 -18936.560403      0.050022
P  6  20538.805356  -1237.991881 -16797.240602     41.994645
V  6 -15651.474563  14574.957845 -20241.391380      0.094360
P  7   3875.044212  15314.527519  21392.712046    428.239834
V  7 -22069.161812  15511.898467  -7485.528264      0.034106
P  9   7748.761595  24702.115457   5906.803926    -44.670510
V  9  -1685.427037   7832.798286 -30523.575777     -0.105729
P 10  25109.061404   9124.246178   1661.682533   -157.173527
V 10   1158.206199   3825.622410 -30942.761423     -0.017053
P 11  -9507.170391  24040.765797  -6261.112864   -548.254528
V 11  -8034.525960   3670.388828  28847.515153     -0.027285
P 12   3589.524736 -14373.298842 -22137.078580    258.553976
V 12  25356.557065  11451.432760  -3126.918755      0.029559
P 13  13295.006710 -10985.933355  20124.025317    -75.427834
V 13   1655.282731  25716.954889  12687.354018     -0.034106
P 14 -14001.665775 -11496.723390 -19243.706625    100.255505
V 14   -402.215285 -24884.181098  14840.034205     -0.035243
P 15   4010.566249 -23564.485456  11154.011766   -224.177738
V 15   5940.626693  13597.202761  26717.354419     -0.022737
P 16 -19652.689983   3463.703054  17657.515390   -167.972251
V 16 -19726.723417 -10501.469869 -19474.269232      0.030695
P 17  13759.722868  13387.786450 -18170.338710   -147.861441
V 17    929.086693  23558.816069  17567.622257     -0.022737
P 18 -18140.914106 -16240.654812  11445.685162    369.703314
V 18  13950.991070   2179.003617  25980.965284      0.026148
P 19  -9219.235487  19735.321149  14703.496022   -495.163106
V 19  -3122.688393 -19016.634284  23737.119731     -0.015916
P 20   9284.566353  17344.653721 -18099.455805    274.606212
V 20 -22160.269368  -5155.571168 -16382.249601      0.042064
P 21 -10512.208803 -12240.080323  21774.136856   -404.023112
V 21  20509.777318 -16297.514224    354.530612     -0.022737
P 22 -24922.117648  -9438.409853   -257.513354    303.550924
V 22    859.572220  -3820.725671  30773.149262      0.038654
P 23    456.351732  25969.562520  -4190.126521    -79.111491
V 23  -4193.444144  -5042.984717 -31180.973413     -0.027285
P 24  11354.691699 -20456.410334 -12467.261022    -41.159991
V 24  13952.180900  -7959.594499  25939.384055     -0.006821
P 25 -10600.519195 -17033.997611 -17560.386746      5.528318
V 25  20928.557091   7041.851462 -19404.725580     -0.022737
P 26  12303.738206 -13055.465579  18826.760612   -179.775273
V 26   2512.108526  25310.042236  15643.077331     -0.133014
P 27 -12995.726303  10276.870865  20730.173997     41.728203
V 27  -4611.874578 -25957.880533  10053.949358      0.027285
P 28  22359.124984  13973.827262   4265.211420    409.883788
V 28  -4910.658713   -418.019586  31680.677095      0.026148
P 29  -4580.034540 -25964.901290   3400.597420    583.653305
V 29   2020.713594  -4462.058870 -31592.995967      0.023874
P 30  14246.889904   8169.092935  20882.860470    -86.251928
V 30 -21633.085133  15358.067455   8703.543946     -0.004547
P 31 -21784.383666   3492.919416 -14882.343007    326.189068
V 31  14418.881432 -12453.547935 -23468.822836     -0.007958
P 32 -13322.045257   9911.133068 -20615.862068   -255.896010
V 32 -22998.518956 -12928.235214   9188.626766      0.086402
EOF
